{
  "type": "FeatureCollection",
  "note": "India domestic oil/gas trunk pipelines plus cross-border pipelines that directly affect India. Approximate routes for illustrative overview only — not survey-accurate. status: operational | proposed.",
  "features": [
    {
      "type": "Feature",
      "properties": { "name": "Hazira–Vijaipur–Jagdishpur (HVJ)", "kind": "gas", "status": "operational" },
      "geometry": { "type": "LineString", "coordinates": [[72.83, 21.17], [74.5, 22.7], [77.9, 24.6], [80.0, 25.9], [81.5, 26.5]] }
    },
    {
      "type": "Feature",
      "properties": { "name": "Dahej–Vijaipur (DVPL)", "kind": "gas", "status": "operational" },
      "geometry": { "type": "LineString", "coordinates": [[72.53, 21.7], [74.8, 23.2], [77.9, 24.6]] }
    },
    {
      "type": "Feature",
      "properties": { "name": "Jagdishpur–Haldia (Urja Ganga)", "kind": "gas", "status": "operational" },
      "geometry": { "type": "LineString", "coordinates": [[81.5, 26.5], [82.97, 25.32], [85.14, 25.59], [86.15, 23.64], [87.32, 23.55], [88.06, 22.03]] }
    },
    {
      "type": "Feature",
      "properties": { "name": "Bokaro–Angul–Dhamra spur", "kind": "gas", "status": "operational" },
      "geometry": { "type": "LineString", "coordinates": [[86.15, 23.64], [85.1, 20.84], [86.95, 20.78]] }
    },
    {
      "type": "Feature",
      "properties": { "name": "Kochi–Koottanad–Mangalore (KKBMPL)", "kind": "gas", "status": "operational" },
      "geometry": { "type": "LineString", "coordinates": [[76.28, 9.97], [76.4, 10.6], [75.78, 11.25], [74.86, 12.87]] }
    },
    {
      "type": "Feature",
      "properties": { "name": "Koottanad–Coimbatore–Bengaluru", "kind": "gas", "status": "operational" },
      "geometry": { "type": "LineString", "coordinates": [[76.4, 10.6], [76.96, 11.02], [77.6, 12.97]] }
    },
    {
      "type": "Feature",
      "properties": { "name": "Dabhol–Bengaluru (DBPL)", "kind": "gas", "status": "operational" },
      "geometry": { "type": "LineString", "coordinates": [[73.2, 17.6], [74.5, 15.85], [77.6, 12.97]] }
    },
    {
      "type": "Feature",
      "properties": { "name": "Ennore–Bengaluru (ETBPNPL)", "kind": "gas", "status": "operational" },
      "geometry": { "type": "LineString", "coordinates": [[80.32, 13.23], [78.7, 13.0], [77.6, 12.97]] }
    },
    {
      "type": "Feature",
      "properties": { "name": "Dadri–Bawana–Nangal (DBNPL)", "kind": "gas", "status": "operational" },
      "geometry": { "type": "LineString", "coordinates": [[76.38, 31.39], [77.05, 28.8], [77.55, 28.59]] }
    },
    {
      "type": "Feature",
      "properties": { "name": "Salaya–Mathura crude", "kind": "oil", "status": "operational" },
      "geometry": { "type": "LineString", "coordinates": [[69.73, 22.28], [72.03, 23.12], [75.0, 25.6], [77.68, 27.49]] }
    },
    {
      "type": "Feature",
      "properties": { "name": "Mundra–Panipat crude", "kind": "oil", "status": "operational" },
      "geometry": { "type": "LineString", "coordinates": [[69.72, 22.84], [72.5, 25.5], [75.0, 28.0], [76.97, 29.39]] }
    },
    {
      "type": "Feature",
      "properties": { "name": "Kandla–Bhatinda crude", "kind": "oil", "status": "operational" },
      "geometry": { "type": "LineString", "coordinates": [[70.22, 23.03], [72.0, 26.0], [73.8, 28.5], [74.94, 30.21]] }
    },
    {
      "type": "Feature",
      "properties": { "name": "Paradip–Haldia–Barauni crude", "kind": "oil", "status": "operational" },
      "geometry": { "type": "LineString", "coordinates": [[86.61, 20.26], [88.06, 22.03], [87.0, 24.0], [86.02, 25.48]] }
    },
    {
      "type": "Feature",
      "properties": { "name": "Paradip–Hyderabad product", "kind": "product", "status": "operational" },
      "geometry": { "type": "LineString", "coordinates": [[86.61, 20.26], [83.3, 18.9], [78.49, 17.38]] }
    },
    {
      "type": "Feature",
      "properties": { "name": "Numaligarh–Siliguri product", "kind": "product", "status": "operational" },
      "geometry": { "type": "LineString", "coordinates": [[93.74, 26.62], [91.75, 26.14], [88.43, 26.72]] }
    },
    {
      "type": "Feature",
      "properties": { "name": "India–Bangladesh Friendship (diesel)", "kind": "product", "status": "operational" },
      "geometry": { "type": "LineString", "coordinates": [[88.43, 26.72], [88.92, 25.66]] }
    },
    {
      "type": "Feature",
      "properties": { "name": "TAPI (Turkmenistan→India)", "kind": "gas", "status": "proposed" },
      "geometry": { "type": "LineString", "coordinates": [[61.4, 38.0], [62.2, 34.35], [65.7, 31.6], [66.99, 30.18], [71.52, 30.16], [74.03, 30.4]] }
    },
    {
      "type": "Feature",
      "properties": { "name": "Iran–Pakistan–India (IPI)", "kind": "gas", "status": "proposed" },
      "geometry": { "type": "LineString", "coordinates": [[52.6, 27.5], [60.68, 27.2], [62.33, 25.12], [68.4, 26.25], [71.38, 25.75]] }
    }
  ]
}
